TIANQI-15               
1 49027U 21065B   26068.81163741  .00006722  00000+0  41179-3 0  9990
2 49027  34.9979 108.2420 0007067 250.7766 109.2180 15.09508085254244
STARLINK-3287           
1 50172U 21125S   26068.76160230  .00000566  00000+0  53616-4 0  9994
2 50172  53.2165 248.7967 0001099 109.8238 250.2873 15.08847367236649
